[{"OBJECT_NAME":"STARLINK-5308","OBJECT_ID":"2023-010AH","EPOCH":"2026-03-09T21:24:56.578464","MEAN_MOTION":14.98333974,"ECCENTRICITY":0.00029081,"INCLINATION":70.0013,"RA_OF_ASC_NODE":23.7797,"ARG_OF_PERICENTER":271.4403,"MEAN_ANOMALY":88.6422,"EPHEMERIS_TYPE":0,"CLASSIFICATION_TYPE":"U","NORAD_CAT_ID":55300,"ELEMENT_SET_NO":999,"REV_AT_EPOCH":17330,"BSTAR":-1.8488378e-5,"MEAN_MOTION_DOT":-3.14e-6,"MEAN_MOTION_DDOT":0},{"OBJECT_NAME":"FENGYUN 1C DEB","OBJECT_ID":"1999-025AAZ","EPOCH":"2026-03-09T18:55:56.238240","MEAN_MOTION":14.48574419,"ECCENTRICITY":0.02668757,"INCLINATION":98.4447,"RA_OF_ASC_NODE":143.6319,"ARG_OF_PERICENTER":289.1846,"MEAN_ANOMALY":192.6872,"EPHEMERIS_TYPE":0,"CLASSIFICATION_TYPE":"U","NORAD_CAT_ID":30338,"ELEMENT_SET_NO":999,"REV_AT_EPOCH":99404,"BSTAR":0.00086398486,"MEAN_MOTION_DOT":5.053e-5,"MEAN_MOTION_DDOT":0}]
